CCSDS_OMM_VERS = 2.0
CREATION_DATE  = 
ORIGINATOR     = 

OBJECT_NAME    = KUIPER-00210
OBJECT_ID      = 2025-301P
CENTER_NAME    = EARTH
REF_FRAME      = TEME
TIME_SYSTEM    = UTC
MEAN_ELEMENT_THEORY = SGP/SGP4

EPOCH          = 2025-12-26T15:25:56.591904
MEAN_MOTION    = 15.34199961
ECCENTRICITY   = .00105946
INCLINATION    = 51.8601
RA_OF_ASC_NODE = 58.1848
ARG_OF_PERICENTER = 151.5196
MEAN_ANOMALY   = 208.6370

EPHEMERIS_TYPE = 0
CLASSIFICATION_TYPE = U
NORAD_CAT_ID   = 67146
ELEMENT_SET_NO = 999
REV_AT_EPOCH   = 267
BSTAR          = .88209815E-3
MEAN_MOTION_DOT = .29428E-3
MEAN_MOTION_DDOT = 0

CCSDS_OMM_VERS = 2.0
CREATION_DATE  = 
ORIGINATOR     = 

OBJECT_NAME    = KUIPER-00221
OBJECT_ID      = 2025-301Q
CENTER_NAME    = EARTH
REF_FRAME      = TEME
TIME_SYSTEM    = UTC
MEAN_ELEMENT_THEORY = SGP/SGP4

EPOCH          = 2025-12-26T13:36:51.784992
MEAN_MOTION    = 15.35761900
ECCENTRICITY   = .00050184
INCLINATION    = 51.8724
RA_OF_ASC_NODE = 58.4309
ARG_OF_PERICENTER = 114.1511
MEAN_ANOMALY   = 246.0000

EPHEMERIS_TYPE = 0
CLASSIFICATION_TYPE = U
NORAD_CAT_ID   = 67147
ELEMENT_SET_NO = 999
REV_AT_EPOCH   = 249
BSTAR          = .99577279E-3
MEAN_MOTION_DOT = .34963E-3
MEAN_MOTION_DDOT = 0

CCSDS_OMM_VERS = 2.0
CREATION_DATE  = 
ORIGINATOR     = 

OBJECT_NAME    = KUIPER-00232
OBJECT_ID      = 2025-301R
CENTER_NAME    = EARTH
REF_FRAME      = TEME
TIME_SYSTEM    = UTC
MEAN_ELEMENT_THEORY = SGP/SGP4

EPOCH          = 2025-12-26T13:27:10.377792
MEAN_MOTION    = 15.36722826
ECCENTRICITY   = .0001647
INCLINATION    = 51.8746
RA_OF_ASC_NODE = 58.3815
ARG_OF_PERICENTER = 50.5571
MEAN_ANOMALY   = 309.5561

EPHEMERIS_TYPE = 0
CLASSIFICATION_TYPE = U
NORAD_CAT_ID   = 67148
ELEMENT_SET_NO = 999
REV_AT_EPOCH   = 249
BSTAR          = .5919398E-3
MEAN_MOTION_DOT = .21238E-3
MEAN_MOTION_DDOT = 0

CCSDS_OMM_VERS = 2.0
CREATION_DATE  = 
ORIGINATOR     = 

OBJECT_NAME    = KUIPER-00241
OBJECT_ID      = 2025-301S
CENTER_NAME    = EARTH
REF_FRAME      = TEME
TIME_SYSTEM    = UTC
MEAN_ELEMENT_THEORY = SGP/SGP4

EPOCH          = 2025-12-26T13:31:44.941440
MEAN_MOTION    = 15.36273160
ECCENTRICITY   = .00028198
INCLINATION    = 51.8745
RA_OF_ASC_NODE = 58.4011
ARG_OF_PERICENTER = 98.3919
MEAN_ANOMALY   = 261.7387

EPHEMERIS_TYPE = 0
CLASSIFICATION_TYPE = U
NORAD_CAT_ID   = 67149
ELEMENT_SET_NO = 999
REV_AT_EPOCH   = 282
BSTAR          = .58232928E-3
MEAN_MOTION_DOT = .20582E-3
MEAN_MOTION_DDOT = 0

CCSDS_OMM_VERS = 2.0
CREATION_DATE  = 
ORIGINATOR     = 

OBJECT_NAME    = KUIPER-00245
OBJECT_ID      = 2025-301T
CENTER_NAME    = EARTH
REF_FRAME      = TEME
TIME_SYSTEM    = UTC
MEAN_ELEMENT_THEORY = SGP/SGP4

EPOCH          = 2025-12-26T13:37:45.162912
MEAN_MOTION    = 15.35664172
ECCENTRICITY   = .00050166
INCLINATION    = 51.8731
RA_OF_ASC_NODE = 58.4328
ARG_OF_PERICENTER = 122.7177
MEAN_ANOMALY   = 237.4293

EPHEMERIS_TYPE = 0
CLASSIFICATION_TYPE = U
NORAD_CAT_ID   = 67150
ELEMENT_SET_NO = 999
REV_AT_EPOCH   = 249
BSTAR          = .84747603E-3
MEAN_MOTION_DOT = .29583E-3
MEAN_MOTION_DDOT = 0

CCSDS_OMM_VERS = 2.0
CREATION_DATE  = 
ORIGINATOR     = 

OBJECT_NAME    = KUIPER-00246
OBJECT_ID      = 2025-301U
CENTER_NAME    = EARTH
REF_FRAME      = TEME
TIME_SYSTEM    = UTC
MEAN_ELEMENT_THEORY = SGP/SGP4

EPOCH          = 2025-12-26T13:34:36.943104
MEAN_MOTION    = 15.35933694
ECCENTRICITY   = .00039602
INCLINATION    = 51.8742
RA_OF_ASC_NODE = 58.4174
ARG_OF_PERICENTER = 114.6561
MEAN_ANOMALY   = 245.4838

EPHEMERIS_TYPE = 0
CLASSIFICATION_TYPE = U
NORAD_CAT_ID   = 67151
ELEMENT_SET_NO = 999
REV_AT_EPOCH   = 251
BSTAR          = .87401428E-3
MEAN_MOTION_DOT = .3079E-3
MEAN_MOTION_DDOT = 0

CCSDS_OMM_VERS = 2.0
CREATION_DATE  = 
ORIGINATOR     = 

OBJECT_NAME    = KUIPER-00247
OBJECT_ID      = 2025-301V
CENTER_NAME    = EARTH
REF_FRAME      = TEME
TIME_SYSTEM    = UTC
MEAN_ELEMENT_THEORY = SGP/SGP4

EPOCH          = 2025-12-26T15:27:40.931136
MEAN_MOTION    = 15.34015344
ECCENTRICITY   = .0011231
INCLINATION    = 51.8629
RA_OF_ASC_NODE = 58.1938
ARG_OF_PERICENTER = 154.7768
MEAN_ANOMALY   = 205.3768

EPHEMERIS_TYPE = 0
CLASSIFICATION_TYPE = U
NORAD_CAT_ID   = 67152
ELEMENT_SET_NO = 999
REV_AT_EPOCH   = 250
BSTAR          = .84977733E-3
MEAN_MOTION_DOT = .28169E-3
MEAN_MOTION_DDOT = 0

CCSDS_OMM_VERS = 2.0
CREATION_DATE  = 
ORIGINATOR     = 

OBJECT_NAME    = KUIPER-00248
OBJECT_ID      = 2025-301W
CENTER_NAME    = EARTH
REF_FRAME      = TEME
TIME_SYSTEM    = UTC
MEAN_ELEMENT_THEORY = SGP/SGP4

EPOCH          = 2025-12-26T13:47:24.720288
MEAN_MOTION    = 15.34696919
ECCENTRICITY   = .00087479
INCLINATION    = 51.8682
RA_OF_ASC_NODE = 58.4800
ARG_OF_PERICENTER = 142.7108
MEAN_ANOMALY   = 217.4486

EPHEMERIS_TYPE = 0
CLASSIFICATION_TYPE = U
NORAD_CAT_ID   = 67153
ELEMENT_SET_NO = 999
REV_AT_EPOCH   = 266
BSTAR          = .10010759E-2
MEAN_MOTION_DOT = .33987E-3
MEAN_MOTION_DDOT = 0

CCSDS_OMM_VERS = 2.0
CREATION_DATE  = 
ORIGINATOR     = 

OBJECT_NAME    = KUIPER-00249
OBJECT_ID      = 2025-301X
CENTER_NAME    = EARTH
REF_FRAME      = TEME
TIME_SYSTEM    = UTC
MEAN_ELEMENT_THEORY = SGP/SGP4

EPOCH          = 2025-12-26T15:19:11.135712
MEAN_MOTION    = 15.34823508
ECCENTRICITY   = .00081002
INCLINATION    = 51.8653
RA_OF_ASC_NODE = 58.1564
ARG_OF_PERICENTER = 139.9410
MEAN_ANOMALY   = 220.2175

EPHEMERIS_TYPE = 0
CLASSIFICATION_TYPE = U
NORAD_CAT_ID   = 67154
ELEMENT_SET_NO = 999
REV_AT_EPOCH   = 250
BSTAR          = .85989327E-3
MEAN_MOTION_DOT = .29236E-3
MEAN_MOTION_DDOT = 0

CCSDS_OMM_VERS = 2.0
CREATION_DATE  = 
ORIGINATOR     = 

OBJECT_NAME    = KUIPER-00250
OBJECT_ID      = 2025-301Y
CENTER_NAME    = EARTH
REF_FRAME      = TEME
TIME_SYSTEM    = UTC
MEAN_ELEMENT_THEORY = SGP/SGP4

EPOCH          = 2025-12-26T15:14:29.263488
MEAN_MOTION    = 15.35370073
ECCENTRICITY   = .00062401
INCLINATION    = 51.8715
RA_OF_ASC_NODE = 58.1338
ARG_OF_PERICENTER = 130.2941
MEAN_ANOMALY   = 229.8591

EPHEMERIS_TYPE = 0
CLASSIFICATION_TYPE = U
NORAD_CAT_ID   = 67155
ELEMENT_SET_NO = 999
REV_AT_EPOCH   = 253
BSTAR          = .84887979E-3
MEAN_MOTION_DOT = .29358E-3
MEAN_MOTION_DDOT = 0

CCSDS_OMM_VERS = 2.0
CREATION_DATE  = 
ORIGINATOR     = 

OBJECT_NAME    = KUIPER-00251
OBJECT_ID      = 2025-301Z
CENTER_NAME    = EARTH
REF_FRAME      = TEME
TIME_SYSTEM    = UTC
MEAN_ELEMENT_THEORY = SGP/SGP4

EPOCH          = 2025-12-26T15:20:18.388608
MEAN_MOTION    = 15.34794129
ECCENTRICITY   = .00087532
INCLINATION    = 51.8668
RA_OF_ASC_NODE = 58.1618
ARG_OF_PERICENTER = 138.1231
MEAN_ANOMALY   = 222.0426

EPHEMERIS_TYPE = 0
CLASSIFICATION_TYPE = U
NORAD_CAT_ID   = 67156
ELEMENT_SET_NO = 999
REV_AT_EPOCH   = 269
BSTAR          = .93482401E-3
MEAN_MOTION_DOT = .31803E-3
MEAN_MOTION_DDOT = 0

CCSDS_OMM_VERS = 2.0
CREATION_DATE  = 
ORIGINATOR     = 

OBJECT_NAME    = KUIPER-00252
OBJECT_ID      = 2025-301AA
CENTER_NAME    = EARTH
REF_FRAME      = TEME
TIME_SYSTEM    = UTC
MEAN_ELEMENT_THEORY = SGP/SGP4

EPOCH          = 2025-12-26T15:24:28.777536
MEAN_MOTION    = 15.34303489
ECCENTRICITY   = .00097843
INCLINATION    = 51.8658
RA_OF_ASC_NODE = 58.1806
ARG_OF_PERICENTER = 148.3607
MEAN_ANOMALY   = 211.7968

EPHEMERIS_TYPE = 0
CLASSIFICATION_TYPE = U
NORAD_CAT_ID   = 67157
ELEMENT_SET_NO = 999
REV_AT_EPOCH   = 250
BSTAR          = .67020405E-3
MEAN_MOTION_DOT = .22314E-3
MEAN_MOTION_DDOT = 0

