KUIPER-00210            
1 67146U 25301P   25360.64301611  .00029428  00000+0  88210-3 0  9999
2 67146  51.8601  58.1848 0010594 151.5196 208.6370 15.34199961  2677
KUIPER-00221            
1 67147U 25301Q   25360.56726603  .00034963  00000+0  99577-3 0  9991
2 67147  51.8724  58.4309 0005018 114.1511 246.0000 15.35761900  2495
KUIPER-00232            
1 67148U 25301R   25360.56053678  .00021238  00000+0  59194-3 0  9999
2 67148  51.8746  58.3815 0001647  50.5571 309.5561 15.36722826  2496
KUIPER-00241            
1 67149U 25301S   25360.56371460  .00020582  00000+0  58233-3 0  9996
2 67149  51.8745  58.4011 0002819  98.3919 261.7387 15.36273160  2827
KUIPER-00245            
1 67150U 25301T   25360.56788383  .00029583  00000+0  84748-3 0  9994
2 67150  51.8731  58.4328 0005016 122.7177 237.4293 15.35664172  2490
KUIPER-00246            
1 67151U 25301U   25360.56570536  .00030790  00000+0  87401-3 0  9995
2 67151  51.8742  58.4174 0003960 114.6561 245.4838 15.35933694  2510
KUIPER-00247            
1 67152U 25301V   25360.64422374  .00028169  00000+0  84978-3 0  9994
2 67152  51.8629  58.1938 0011231 154.7768 205.3768 15.34015344  2502
KUIPER-00248            
1 67153U 25301W   25360.57459167  .00033987  00000+0  10011-2 0  9997
2 67153  51.8682  58.4800 0008747 142.7108 217.4486 15.34696919  2667
KUIPER-00249            
1 67154U 25301X   25360.63832333  .00029236  00000+0  85989-3 0  9994
2 67154  51.8653  58.1564 0008100 139.9410 220.2175 15.34823508  2503
KUIPER-00250            
1 67155U 25301Y   25360.63506092  .00029358  00000+0  84888-3 0  9997
2 67155  51.8715  58.1338 0006240 130.2941 229.8591 15.35370073  2533
KUIPER-00251            
1 67156U 25301Z   25360.63910172  .00031803  00000+0  93482-3 0  9994
2 67156  51.8668  58.1618 0008753 138.1231 222.0426 15.34794129  2692
KUIPER-00252            
1 67157U 25301AA  25360.64199974  .00022314  00000+0  67020-3 0  9991
2 67157  51.8658  58.1806 0009784 148.3607 211.7968 15.34303489  2507
